H1 CPF 01  gfz 2022 07 08 12  6892 terrasarx 
H2 0702601  6201 31698    2022 07 08 12 59 42 2022 07 13 00 00 42   120 1 1  0 0 0
H9
10 0 59769  76302.000000  0    3540956.139  -2868578.459  -5173693.288
10 0 59769  76422.000000  0    3887469.240  -3437084.756  -4539057.063
10 0 59769  76542.000000  0    4156915.388  -3951218.250  -3824937.211
10 0 59769  76662.000000  0    4345573.685  -4400584.250  -3043766.592
10 0 59769  76782.000000  0    4451295.619  -4775847.878  -2209183.520
10 0 59769  76902.000000  0    4473531.641  -5068933.417  -1335796.810
10 0 59769  77022.000000  0    4413325.016  -5273203.102   -438928.683
10 0 59769  77142.000000  0    4273273.360  -5383608.845    465658.883
10 0 59769  77262.000000  0    4057458.601  -5396814.216   1362048.170
10 0 59769  77382.000000  0    3771346.413  -5311282.005   2234455.532
10 0 59769  77502.000000  0    3421656.650  -5127324.652   3067517.707
10 0 59769  77622.000000  0    3016210.047  -4847118.443   3846569.560
10 0 59769  77742.000000  0    2563754.415  -4474678.887   4557907.512
10 0 59769  77862.000000  0    2073775.421  -4015799.431   5189033.188
10 0 59769  77982.000000  0    1556296.133  -3477955.199   5728872.542
10 0 59769  78102.000000  0    1021669.824  -2870173.755   6167967.589
10 0 59769  78222.000000  0     480371.038  -2202876.944   6498636.063
10 0 59769  78342.000000  0     -57210.211  -1487697.663   6715098.809
10 0 59769  78462.000000  0    -580966.843   -737274.970   6813575.244
10 0 59769  78582.000000  0   -1081263.518     34970.943   6792345.857
10 0 59769  78702.000000  0   -1549113.172    815078.715   6651780.076
10 0 59769  78822.000000  0   -1976337.940   1588797.498   6394330.006
10 0 59769  78942.000000  0   -2355712.487   2341846.284   6024490.407
10 0 59769  79062.000000  0   -2681087.155   3060177.575   5548725.157
10 0 59769  79182.000000  0   -2947489.435   3730241.114   4975360.780
10 0 59769  79302.000000  0   -3151202.860   4339243.448   4314447.274
10 0 59769  79422.000000  0   -3289820.135   4875398.203   3577586.737
10 0 59769  79542.000000  0   -3362269.641   5328161.718   2777732.007
10 0 59769  79662.000000  0   -3368814.080   5688447.632   1928958.045
10 0 59769  79782.000000  0   -3311021.696   5948814.666   1046210.891
10 0 59769  79902.000000  0   -3191710.331   6103625.098    145039.668
10 0 59769  80022.000000  0   -3014865.513   6149168.871   -758685.590
10 0 59769  80142.000000  0   -2785535.076   6083748.329  -1649063.652
10 0 59769  80262.000000  0   -2509700.725   5907720.642  -2510453.032
10 0 59769  80382.000000  0   -2194130.737   5623496.446  -3327752.493
10 0 59769  80502.000000  0   -1846220.665   5235500.625  -4086667.843
10 0 59769  80622.000000  0   -1473824.839   4750092.579  -4773961.567
10 0 59769  80742.000000  0   -1085083.473   4175450.837  -5377678.120
10 0 59769  80862.000000  0    -688248.768   3521426.234  -5887344.691
10 0 59769  80982.000000  0    -291512.998   2799364.561  -6294144.172
10 0 59769  81102.000000  0      97157.018   2021903.223  -6591056.002
10 0 59769  81222.000000  0     470175.049   1202748.795  -6772965.892
10 0 59769  81342.000000  0     820479.092    356436.977  -6836745.589
10 0 59769  81462.000000  0    1141661.575   -501921.203  -6781300.621
10 0 59769  81582.000000  0    1428083.129  -1356903.833  -6607585.805
10 0 59769  81702.000000  0    1674968.934  -2193047.486  -6318589.694
10 0 59769  81822.000000  0    1878487.621  -2995119.730  -5919289.636
10 0 59769  81942.000000  0    2035810.860  -3748393.066  -5416576.660
10 0 59769  82062.000000  0    2145152.694  -4438916.673  -4819146.962
10 0 59769  82182.000000  0    2205787.379  -5053776.346  -4137361.142
10 0 59769  82302.000000  0    2218045.869  -5581341.151  -3383075.505
10 0 59769  82422.000000  0    2183290.330  -6011492.630  -2569444.300
10 0 59769  82542.000000  0    2103866.818  -6335830.292  -1710695.319
10 0 59769  82662.000000  0    1983035.611  -6547846.689   -821881.709
10 0 59769  82782.000000  0    1824884.170  -6643068.493     81385.386
10 0 59769  82902.000000  0    1634220.200  -6619155.572    983218.001
10 0 59769  83022.000000  0    1416450.396  -6475961.019   1867737.827
10 0 59769  83142.000000  0    1177446.289  -6215545.015   2719367.016
10 0 59769  83262.000000  0     923401.043  -5842142.634   3523110.245
10 0 59769  83382.000000  0     660680.932  -5362089.514   4264824.739
10 0 59769  83502.000000  0     395675.958  -4783706.477   4931472.284
10 0 59769  83622.000000  0     134652.146  -4117145.955   5511349.454
10 0 59769  83742.000000  0    -116389.368  -3374203.579   5994291.257
10 0 59769  83862.000000  0    -351843.901  -2568099.540   6371844.542
10 0 59769  83982.000000  0    -566623.481  -1713237.130   6637408.253
10 0 59769  84102.000000  0    -756262.808   -824943.044   6786342.863
10 0 59769  84222.000000  0    -917009.531     80808.913   6816047.760
10 0 59769  84342.000000  0   -1045897.512    987685.684   6726004.031
10 0 59769  84462.000000  0   -1140801.027   1879289.038   6517782.644
10 0 59769  84582.000000  0   -1200469.562   2739451.361   6195018.762
10 0 59769  84702.000000  0   -1224543.363   3552529.141   5763352.356
10 0 59769  84822.000000  0   -1213548.925   4303689.712   5230334.945
10 0 59769  84942.000000  0   -1168874.081   4979186.271   4605304.114
10 0 59769  85062.000000  0   -1092724.355   5566617.332   3899225.094
10 0 59769  85182.000000  0    -988059.677   6055162.157   3124501.461
10 0 59769  85302.000000  0    -858515.740   6435790.831   2294760.389
10 0 59769  85422.000000  0    -708307.759   6701442.494   1424609.096
10 0 59769  85542.000000  0    -542119.840   6847163.309    529372.238
10 0 59769  85662.000000  0    -364983.708   6870204.117   -375184.651
10 0 59769  85782.000000  0    -182149.467   6770075.015  -1273141.930
10 0 59769  85902.000000  0       1048.060   6548552.033  -2148716.584
10 0 59769  86022.000000  0     179322.899   6209636.900  -2986546.346
10 0 59769  86142.000000  0     347568.859   5759475.098  -3771962.923
10 0 59769  86262.000000  0     500985.387   5206232.960  -4491250.092
10 0 59769  86382.000000  0     635194.952   4559936.958  -5131880.892
10 0 59770    102.000000  0     746349.203   3832280.306  -5682729.688
10 0 59770    222.000000  0     831221.187   3036401.740  -6134256.709
10 0 59770    342.000000  0     887281.951   2186641.269  -6478662.483
10 0 59770    462.000000  0     912760.891   1298279.314  -6710010.445
10 0 59770    582.000000  0     906688.167    387263.734  -6824319.449
10 0 59770    702.000000  0     868919.401   -530072.335  -6819625.142
10 0 59770    822.000000  0     800141.668  -1437297.598  -6696009.039
10 0 59770    942.000000  0     701861.178  -2318168.609  -6455595.712
10 0 59770   1062.000000  0     576373.353  -3156912.593  -6102521.897
10 0 59770   1182.000000  0     426714.141  -3938507.254  -5642874.439
10 0 59770   1302.000000  0     256594.456  -4648948.963  -5084594.285
10 0 59770   1422.000000  0      70318.762  -5275506.110  -4437350.982
10 0 59770   1542.000000  0    -127312.007  -5806954.420  -3712386.430
10 0 59770   1662.000000  0    -331110.805  -6233788.092  -2922328.268
10 0 59770   1782.000000  0    -535626.060  -6548401.671  -2080976.441
10 0 59770   1902.000000  0    -735271.991  -6745239.336  -1203064.674
10 0 59770   2022.000000  0    -924464.336  -6820905.122   -304000.187
10 0 59770   2142.000000  0   -1097758.247  -6774230.724    600411.824
10 0 59770   2262.000000  0   -1249985.116  -6606299.503   1494253.069
10 0 59770   2382.000000  0   -1376384.787  -6320425.473   2361781.369
10 0 59770   2502.000000  0   -1472729.158  -5922086.496   3187717.244
10 0 59770   2622.000000  0   -1535433.991  -5418813.859   3957521.040
10 0 59770   2742.000000  0   -1561655.381  -4820040.787   4657653.506
10 0 59770   2862.000000  0   -1549370.131  -4136916.756   5275814.856
10 0 59770   2982.000000  0   -1497438.185  -3382090.894   5801161.121
10 0 59770   3102.000000  0   -1405644.562  -2569467.299   6224490.930
10 0 59770   3222.000000  0   -1274719.911  -1713942.102   6538399.604
10 0 59770   3342.000000  0   -1106341.009   -831127.366   6737402.641
10 0 59770   3462.000000  0    -903111.643     62936.275   6818026.190
10 0 59770   3582.000000  0    -668523.118    952070.852   6778863.480
10 0 59770   3702.000000  0    -406894.051   1820253.278   6620598.449
10 0 59770   3822.000000  0    -123290.867   2651903.766   6345994.444
10 0 59770   3942.000000  0     176569.387   3432165.284   5959848.776
10 0 59770   4062.000000  0     486431.838   4147170.892   5468914.133
10 0 59770   4182.000000  0     799631.203   4784294.234   4881786.326
10 0 59770   4302.000000  0    1109232.057   5332379.220   4208759.579
10 0 59770   4422.000000  0    1408177.179   5781942.760   3461650.016
10 0 59770   4542.000000  0    1689443.797   6125349.257   2653593.902
10 0 59770   4662.000000  0    1946204.499   6356951.756   1798813.244
10 0 59770   4782.000000  0    2171984.027   6473191.679    912360.579
10 0 59770   4902.000000  0    2360812.655   6472656.444      9846.347
10 0 59770   5022.000000  0    2507369.599   6356093.958   -892843.529
10 0 59770   5142.000000  0    2607114.177   6126384.638  -1779835.281
10 0 59770   5262.000000  0    2656401.499   5788470.879  -2635553.850
10 0 59770   5382.000000  0    2652579.418   5349246.113  -3445002.715
10 0 59770   5502.000000  0    2594064.204   4817405.188  -4194030.561
10 0 59770   5622.000000  0    2480392.795   4203261.645  -4869577.741
10 0 59770   5742.000000  0    2312251.443   3518537.824  -5459898.907
10 0 59770   5862.000000  0    2091481.170   2776133.536  -5954759.198
10 0 59770   5982.000000  0    1821059.696   1989877.249  -6345601.862
10 0 59770   6102.000000  0    1505060.727   1174266.150  -6625684.034
10 0 59770   6222.000000  0    1148592.818    344200.583  -6790182.338
10 0 59770   6342.000000  0     757716.526   -485284.193  -6836267.948
99
